Origin Time       2000/11/14 00:57:00
Lat.              42.450
Long.             144.926
Depth. (km)       45
Mag.              5.9
Station Code      ABSH01
Station Lat.      44.5276
Station Long.     142.8444
Station Height(m) 105
Record Time       2000/11/14 00:58:45
Sampling Freq(Hz) 200Hz
Duration Time(s)  119
Dir.              5
Scale Factor      2000(gal)/8388608
Max. Acc. (gal)   0.289
Last Correction   2000/11/14 00:00:00
Memo.             
[...]
   22732    22743    22759    22775    22780    22775    22765    22751 
   22735    22720    22708    22699    22691    22682    22667    22645 
   22622    22602    22591    22590    22586    22575    22560    22546 
   22534    22518    22492    22458    22423    22396    22376    22358 
   22338    22314    22291    22269    22249    22228    22210    22198 
   22194    22197    22208    22223    22238    22252    22267    22279 
   22292    22308    22324    22333    22332    22329    22330    22338 
   22348    22353    22356    22370    22397    22426    22450    22475 
   22504    22537    22569    22601    22635    22675    22721    22773 
   22824    22869    22903    22931    22957    22985    23016    23049 
   23077    23093    23097    23100    23108    23122    23136    23145 
   23144    23132    23112    23087    23062    23037    23010    22979 
   22942    22908    22877    22845    22812    22786    22763    22736 
   22702    22664    22634    22619    22613    22607    22597    22586 
   22575    22564    22556    22557    22564    22566    22564    22566 
   22572    22585    22604    22621    22630    22634    22638    22641 
   22638    22631    22626    22624    22620    22614    22610    22608 
   22607    22608    22609    22613    22614    22606    22594    22581 
   22568    22553    22536    22518    22506    22503    22508    22512 
   22510    22502    22490    22484    22490    22502    22516    22535 
   22565    22600    22631    22658    22682    22707    22734    22761 
   22780    22792    22802    22816    22831    22849    22874    22898 
   22913    22920    22926    22934    22941    22940    22941    22954 
   22974    22991    22994    22982    22964    22946    22931    22919 
   22909    22895    22876    22856    22840    22829    22816    22801 
   22789    22783    22785    22792    22798    22796    22788    22781 
   22777    22774    22765    22750    22731    22710    22693    22684 
   22677    22669    22657    22638    22614    22588    22570    22563 
   22559    22551    22544    22543    22552    22568    22585    22602 
   22621    22643    22665    22685    22706    22733    22766    22799 
   22826    22842    22848    22848    22851    22859    22864    22863 
   22856    22847    22844    22849    22859    22871    22879    22880 
   22877    22868    22853    22832    22804    22771    22738    22704 
   22663    22614    22560    22505    22453    22403    22348    22287 
   22230    22186    22150    22115    22089    22075    22070    22071 
   22075    22081    22091    22109    22129    22144    22155    22172 
   22201    22235    22265    22285    22299    22309    22318    22324 
   22331    22346    22371    22405    22438    22466    22491    22518 
   22552    22588    22618    22638    22651    22666    22687    22711 
   22730    22739    22744    22754    22771    22788    22805    22825 
   22844    22861    22879    22902    22929    22954    22973    22987 
   22996    23002    23005    23005    23002    22995    22989    22985 
   22979    22966    22951    22936    22921    22907    22891    22868 
   22843    22825    22821    22824    22824    22820    22820    22828 
   22839    22849    22857    22863    22866    22865    22861    22858 
   22857    22857    22849    22826    22792    22756    22723    22693 
   22662    22629    22593    22558    22529    22507    22485    22462 
   22440    22423    22413    22413    22424    22443    22463    22476 
   22486    22502    22525    22552    22582    22610    22636    22660 
   22681    22700    22714    22722    22727    22734    22748    22771 
   22795    22806    22806    22805    22813    22827    22837    22835 
   22823    22816    22822    22832    22833    22830    22834    22849 
   22866    22880    22895    22913    22927    22934    22937    22944 
   22956    22971    22979    22979    22978    22981    22986    22984 
   22967    22938    22907    22878    22852    22823    22786    22742 
   22697    22658    22623    22583    22532    22476    22428    22387 
   22347    22305    22265    22230    22195    22161    22134    22112 
   22088    22066    22049    22033    22021    22015    22014    22017 
   22024    22034    22049    22067    22082    22097    22115    22134 
   22154    22177    22201    22224    22245    22267    22287    22301 
   22311    22323    22338    22355    22368    22379    22392    22404 
   22414    22423    22434    22446    22453    22451    22442    22433 
   22426    22419    22414    22409    22398    22379    22356    22333 
   22313    22306    22313    22328    22339    22347    22358    22380 
   22411    22445    22482    22520    22561    22601    22638    22673 
   22705    22731    22754    22779    22804    22821    22834    22850 
   22868    22878    22882    22883    22880    22868    22856    22851 
   22855    22859    22852    22831    22807    22790    22778    22765 
   22742    22709    22667    22620    22573    22531    22491    22451 
   22413    22375    22333    22289    22253    22228    22206    22183 
   22161    22138    22115    22095    22082    22074    22069    22062 
   22055    22052    22061    22081    22106    22134    22166    22201 
   22238    22287    22345    22399    22438    22473    22517    22571 
   22620    22660    22693    22723    22754    22789    22825    22860 
   22890    22910    22925    22943    22972    23004    23033    23058 
   23086    23120    23160    23204    23248    23291    23338    23387 
   23429    23462    23489    23513    23537    23559    23576    23583 
   23583    23579    23581    23588    23594    23595    23595    23592 
   23585    23576    23569    23564    23558    23546    23530    23511 
   23482    23440    23397    23366    23342    23316    23281    23240 
   23197    23154    23111    23066    23023    22984    22949    22914 
   22877    22835    22791    22754    22726    22699    22664    22627 
   22601    22590    22582    22570    22560    22560    22568    22570 
   22559    22543    22533    22533    22539    22543    22537    22523 
   22509    22500    22492    22481    22467    22445    22415    22382 
   22355    22338    22329    22320    22308    22296    22287    22280 
   22275    22273    22281    22306    22343    22385    22422    22460 
   22508    22573    22653    22742    22833    22921    23004    23077 
   23142    23207    23275    23342    23404    23466    23523    23567 
   23599    23629    23661    23687    23706    23722    23737    23751 
   23769    23790    23806    23814    23814    23812    23809    23808 
   23804    23798    23784    23762    23742    23728    23714    23693 
   23659    23617    23574    23533    23486    23433    23385    23342 
   23291    23228    23162    23108    23068    23036    23001    22965 
   22931    22901    22872    22845    22820    22796    22772    22747 
   22722    22696    22673    22655    22643    22634    22625    22611 
   22587    22560    22539    22524    22508    22488    22466    22445 
   22424    22402    22382    22367    22354    22342    22336    22341 
   22352    22361    22369    22378    22384    22392    22402    22413 
   22418    22422    22434    22450    22462    22468    22467    22460 
   22452    22450    22459    22472    22480    22481    22484    22496 
   22509    22516    22514    22516    22530    22557    22586    22613 
   22640    22669    22701    22732    22765    22803    22843    22881 
   22912    22935    22957    22989    23021    23035    23030    23020 
   23015    23013    23014    23020    23023    23016    23001    22983 
   22963    22938    22911    22884    22860    22835    22807    22771 
   22730    22686    22645    22606    22571    22543    22523    22506 
   22485    22457    22425    22395    22369    22347    22330    22325 
   22328    22327    22316    22300    22288    22274    22258    22246 
   22242    22238    22222    22197    22171    22154    22141    22124 
   22099    22067    22029    21989    21946    21906    21873    21845 
   21813    21780    21749    21724    21704    21680    21650    21615 
   21584    21557    21532    21515    21508    21502    21495    21493 
   21499    21509    21521    21541    21566    21591    21609    21622 
   21635    21653    21674    21693    21707    21719    21734    21753 
   21775    21802    21833    21862    21889    21913    21938    21972 
   22015    22062    22107    22146    22183    22223    22268    22314 
   22354    22388    22423    22458    22488    22514    22542    22571 
   22593    22605    22616    22634    22656    22679    22705    22737 
   22772    22808    22842    22873    22902    22937    22982    23029 
   23067    23098    23126    23159    23194    23225    23252    23281 
   23318    23358    23391    23417    23444    23469    23491    23509 
   23522    23526    23526    23525    23523    23517    23507    23492 
   23477    23465    23456    23449    23443    23436    23434    23436 
   23431    23416    23405    23404    23405    23398    23385    23365 
   23337    23310    23291    23278    23265    23246    23222    23200 
   23180    23161    23141    23119    23096    23074    23055    23043 
   23036    23033    23032    23030    23024    23013    23001    22991 
   22983    22976    22970    22964    22955    22943    22936    22931 
   22928    22930    22932    22931    22925    22918    22914    22914 
   22915    22911    22897    22865    22823    22788    22767    22751 
   22730    22698    22656    22613    22575    22541    22511    22478 
   22441    22408    22383    22363    22346    22331    22319    22311 
   22307    22305    22303    22299    22290    22283    22286    22299 
   22315    22320    22308    22284    22260    22248    22246    22238 
   22216    22182    22147    22120    22103    22089    22071    22048 
   22017    21978    21941    21913    21894    21875    21855    21835 
   21822    21817    21811    21806    21804    21806    21817    21833 
   21846    21855    21870    21893    21918    21947    21979    22017 
   22056    22092    22126    22168    22218    22266    22307    22346 
   22389    22432    22466    22489    22503    22519    22538    22556 
   22570    22580    22585    22584    22576    22564    22552    22541 
   22533    22525    22516    22506    22496    22487    22481    22479 
   22483    22491    22503    22511    22514    22520    22534    22555 
   22580    22603    22625    22650    22673    22691    22709    22737 
   22775    22817    22860    22900    22934    22963    22993    23025 
   23060    23102    23147    23180    23193    23195    23195    23193 
   23189    23182    23167    23140    23100    23060    23029    23005 
   22978    22946    22916    22890    22867    22850    22839    22830 
   22820    22809    22804    22807    22812    22813    22814    22816 
   22818    22809    22790    22772    22765    22768    22775    22781 
   22777    22760    22745    22740    22744    22753    22763    22769 
   22777    22792    22811    22827    22838    22853    22877    22907 
   22939    22971    23002    23034    23070    23109    23146    23180 
   23210    23238    23264    23287    23304    23314    23320    23326 
   23331    23333    23335    23339    23335    23320    23299    23282 
   23266    23248    23234    23224    23208    23182    23152    23128 
   23104    23078    23052    23026    22996    22964    22936    22908 
   22877    22842    22810    22790    22780    22775    22773    22771 
   22766    22764    22772    22793    22816    22828    22834    22838 
   22842    22846    22851    22854    22849    22837    22830    22828 
   22820    22795    22759    22726    22702    22689    22680    22673 
   22667    22663    22659    22654    22650    22646    22649    22667 
   22693    22717    22743    22777    22816    22851    22879    22907 
   22939    22976    23006    23023    23037    23062    23101    23141 
   23169    23186    23199    23214    23236    23259    23273    23280 
   23288    23301    23320    23346    23375    23397    23406    23402 
   23390    23379    23373    23369    23362    23344    23317    23289 
   23264    23234    23205    23186    23173    23149    23109    23066 
   23026    22992    22970    22961    22948    22919    22883    22857 
   22844    22831    22808    22777    22745    22717    22691    22664 
   22635    22605    22582    22567    22548    22522    22497    22478 
   22471    22474    22482    22490    22499    22510    22520    22527 
   22534    22540    22548    22560    22565    22558    22546    22535 
   22524    22507    22488    22470    22456    22441    22422    22402 
   22383    22366    22352    22343    22340    22337    22330    22316 
   22302    22296    22298    22302    22304    22311    22326    22347 
   22369    22392    22417    22440    22457    22470    22485    22505 
   22525    22540    22549    22555    22564    22575    22582    22582 
   22578    22575    22578    22580    22573    22561    22554    22548 
   22537    22522    22505    22485    22460    22433    22405    22378 
   22354    22332    22312    22287    22261    22245    22242    22241 
   22238    22240    22247    22253    22255    22258    22264    22270 
   22276    22284    22292    22288    22266    22237    22213    22197 
   22183    22160    22122    22077    22032    21984    21927    21868 
   21814    21774    21743    21713    21671    21621    21579    21554 
   21538    21522    21505    21491    21480    21474    21475    21483 
   21498    21519    21543    21569    21601    21645    21697    21753 
   21810    21865    21922    21982    22047    22113    22177    22237 
   22288    22334    22379    22426    22474    22521    22561    22591 
   22614    22638    22667    22699    22724    22737    22741    22742 
   22742    22743    22747    22753    22756    22754    22748    22744 
   22746    22751    22754    22753    22752    22755    22762    22774 
   22787    22799    22812    22825    22836    22847    22857    22867 
   22881    22899    22912    22917    22920    22927    22939    22953 
   22966    22974    22972    22964    22954    22953    22962    22973 
   22978    22979    22978    22982    22989    22995    23002    23007 
   23007    23008    23011    23015    23017    23017    23017    23017 
   23017    23017    23017    23023    23036    23050    23062    23071 
   23078    23076    23067    23060    23053    23043    23029    23013 
   23001    22998    22999    22995    22985    22976    22981    22998 
   23014    23021    23025    23031    23037    23041    23044    23049 
   23049    23038    23021    23003    22989    22979    22974    22968 
   22953    22935    22920    22911    22906    22904    22901    22889 
   22867    22848    22839    22834    22824    22812    22807    22805 
   22793    22769    22749    22744    22742    22733    22717    22699 
   22683    22670    22661    22659    22660    22660    22657    22653 
   22649    22651    22660    22671    22682    22693    22700    22702 
   22699    22696    22697    22701    22701    22692    22672    22647 
   22628    22617    22612    22605    22593    22576    22558    22541 
   22524    22506    22484    22452    22411    22374    22346    22318 
   22281    22237    22193    22152    22111    22071    22034    21998 
   21963    21929    21897    21863    21827    21797    21774    21756 
   21741    21734    21738    21744    21744    21741    21736    21728 
   21723    21728    21748    21778    21807    21827    21838    21849 
   21868    21897    21932    21971    22009    22047    22089    22135 
   22187    22243    22293    22333    22368    22406    22444    22480 
   22515    22549    22581    22616    22654    22691    22720    22746 
   22768    22787    22805    22824    22845    22865    22881    22891 
   22895    22896    22897    22899    22899    22899    22902    22912 
   22924    22930    22931    22928    22928    22941    22966    22997 
   23024    23045    23064    23082    23102    23127    23159    23191 
   23219    23246    23279    23312    23340    23361    23377    23389 
   23396    23397    23391    23384    23384    23390    23401    23414 
   23421    23421    23418    23418    23419    23418    23415    23419 
   23428    23438    23449    23464    23482    23494    23502    23510 
   23525    23543    23560    23573    23585    23593    23590    23573 
   23551    23532    23515    23496    23475    23459    23443    23420 
   23392    23364    23335    23307    23281    23257    23239    23227 
   23219    23212    23205    23200    23197    23197    23200    23202 
   23203    23211    23230    23251    23269    23281    23288    23290 
   23294    23310    23333    23354    23363    23366    23375    23393 
   23420    23447    23469    23480    23479    23471    23462    23457 
   23459    23467    23471    23467    23459    23451    23444    23440 
   23438    23434    23428    23420    23409    23395    23379    23359 
   23337    23317    23298    23278    23251    23218    23184    23153 
   23121    23085    23050    23018    22981    22938    22892    22849 
   22809    22767    22720    22667    22611    22556    22509    22469 
   22431    22387    22336    22288    22251    22225    22200    22167 
   22129    22100    22086    22081    22076    22064    22047    22035 
   22035    22046    22062    22080    22096    22109    22122    22140 
   22161    22176    22185    22192    22201    22216    22236    22245 
   22235    22216    22201    22192    22185    22177    22167    22155 
   22144    22139    22141    22145    22139    22125    22115    22113 
   22114    22113    22105    22093    22091    22100    22114    22125 
   22131    22131    22133    22145    22165    22192    22225    22255 
   22282    22314    22353    22397    22447    22496    22539    22575 
   22606    22635    22664    22693    22711    22712    22704    22695 
   22684    22670    22661    22654    22639    22611    22576    22542 
   22511    22487    22473    22466    22458    22447    22432    22414 
   22398    22388    22390    22397    22396    22383    22366    22352 
   22347    22348    22348    22346    22346    22354    22365    22375 
   22380    22383    22387    22398    22410    22416    22415    22414 
   22412    22408    22403    22398    22391    22382    22377    22375 
   22372    22370    22374    22381    22384    22385    22387    22385 
   22374    22357    22345    22336    22326    22316    22310    22306 
   22302    22297    22292    22288    22289    22294    22303    22314 
   22324    22334    22349    22377    22414    22451    22482    22515 
   22559    22610    22659    22700    22731    22754    22776    22806 
   22843    22876    22900    22919    22939    22963    22990    23016 
   23039    23058    23072    23082    23084    23081    23080    23083 
   23083    23075    23058    23038    23020    23005    22987    22963 
   22935    22903    22870    22843    22826    22815    22800    22778 
   22749    22719    22697    22684    22673    22661    22648    22637 
   22632    22632    22634    22633    22630    22626    22623    22621 
   22619    22617    22612    22606    22601    22600    22604    22609 
   22612    22611    22609    22606    22601    22598    22599    22600 
